*******************************************************************************
Ephemeris / WWW_USER Mon Mar 24 11:07:41 2025 Pasadena, USA      / Horizons    
*******************************************************************************
Target body name: (2018 VA2)                      {source: JPL#8}
Center body name: Earth (399)                     {source: DE441}
Center-site name: Mauna Kea
*******************************************************************************
Start time      : A.D. 2018-Aug-04 05:07:00.0000 UT      
Stop  time      : A.D. 2018-Aug-04 15:49:00.0000 UT      
Step-size       : 1 minutes
*******************************************************************************
Target pole/equ : undefined
Target radii    : undefined                                                    
Center geodetic : 204.5278, 19.8260847, 4.21024   {E-lon(deg),Lat(deg),Alt(km)}
Center cylindric: 204.5278, 6006.35451, 2151.0229 {E-lon(deg),Dxy(km),Dz(km)}
Center pole/equ : ITRF93                          {East-longitude positive}
Center radii    : 6378.137, 6378.137, 6356.752 km {Equator_a, b, pole_c}       
Target primary  : Sun
Vis. interferer : MOON (R_eq= 1737.400) km        {source: DE441}
Rel. light bend : Sun                             {source: DE441}
Rel. lght bnd GM: 1.3271E+11 km^3/s^2                                          
Small-body perts: Yes                             {source: SB441-N16}
Atmos refraction: NO (AIRLESS)
RA format       : HMS
Time format     : CAL 
Calendar mode   : Mixed Julian/Gregorian
RTS-only print  : NO       
EOP file        : eop.250321.p250617                                           
EOP coverage    : DATA-BASED 1962-JAN-20 TO 2025-MAR-21. PREDICTS-> 2025-JUN-16
Units conversion: 1 au= 149597870.700 km, c= 299792.458 km/s, 1 day= 86400.0 s 
Table cut-offs 1: Elevation (-90.0deg=NO ),Airmass (>38.000=NO), Daylight (YES)
Table cut-offs 2: Solar elongation (  0.0,180.0=NO ),Local Hour Angle( 0.0=NO )
Table cut-offs 3: RA/DEC angular rate (     0.0=NO )                           
*******************************************************************************
Initial IAU76/J2000 heliocentric ecliptic osculating elements (au, days, deg.):
  EPOCH=  2458428.5 ! 2018-Nov-06.00 (TDB)         Residual RMS= .39675        
   EC= .3242664208426159   QR= .935847567628844    TP= 2458464.9625425939      
   OM= 226.0068906557846   W=  220.7446970607937   IN= 3.947636678272312       
  Equivalent ICRF heliocentric cartesian coordinates (au, au/d):
   X= 7.314601530918681E-01  Y= 6.289465658343808E-01  Z= 2.763726037901882E-01
  VX=-1.554701504922309E-02 VY= 1.109318211007817E-02 VZ= 3.366540373951610E-03
Asteroid physical parameters (km, seconds, rotational period in hours):        
   GM= n.a.                RAD= n.a.               ROTPER= n.a.                
   H= 27.08                G= .150                 B-V= n.a.                   
                           ALBEDO= n.a.            STYP= n.a.                  
*******************************************************************************
 Date__(UT)__HR:MN     R.A._________(ICRF)_________DEC
******************************************************
$$SOE
 2018-Aug-04 11:16  m  00 09 05.010870 +11 02 15.37353
 2018-Aug-04 11:17  m  00 09 05.054041 +11 02 15.95341
 2018-Aug-04 11:18  m  00 09 05.097202 +11 02 16.53325
 2018-Aug-04 11:19  m  00 09 05.140351 +11 02 17.11304
 2018-Aug-04 11:20  m  00 09 05.183490 +11 02 17.69279
 2018-Aug-04 11:21  m  00 09 05.226617 +11 02 18.27251
 2018-Aug-04 11:22  m  00 09 05.269734 +11 02 18.85217
 2018-Aug-04 11:23  m  00 09 05.312840 +11 02 19.43180
 2018-Aug-04 11:24  m  00 09 05.355935 +11 02 20.01138
 2018-Aug-04 11:25  m  00 09 05.399020 +11 02 20.59092
 2018-Aug-04 11:26  m  00 09 05.442094 +11 02 21.17042
 2018-Aug-04 11:27  m  00 09 05.485157 +11 02 21.74988
 2018-Aug-04 11:28  m  00 09 05.528211 +11 02 22.32929
 2018-Aug-04 11:29  m  00 09 05.571253 +11 02 22.90866
 2018-Aug-04 11:30  m  00 09 05.614286 +11 02 23.48798
 2018-Aug-04 11:31  m  00 09 05.657308 +11 02 24.06726
 2018-Aug-04 11:32  m  00 09 05.700321 +11 02 24.64650
 2018-Aug-04 11:33  m  00 09 05.743323 +11 02 25.22570
 2018-Aug-04 11:34  m  00 09 05.786315 +11 02 25.80485
 2018-Aug-04 11:35  m  00 09 05.829297 +11 02 26.38395
 2018-Aug-04 11:36  m  00 09 05.872269 +11 02 26.96302
 2018-Aug-04 11:37  m  00 09 05.915232 +11 02 27.54204
 2018-Aug-04 11:38  m  00 09 05.958184 +11 02 28.12101
 2018-Aug-04 11:39  m  00 09 06.001127 +11 02 28.69994
 2018-Aug-04 11:40  m  00 09 06.044061 +11 02 29.27882
 2018-Aug-04 11:41  m  00 09 06.086984 +11 02 29.85766
 2018-Aug-04 11:42  m  00 09 06.129899 +11 02 30.43646
 2018-Aug-04 11:43  m  00 09 06.172804 +11 02 31.01521
 2018-Aug-04 11:44  m  00 09 06.215699 +11 02 31.59392
 2018-Aug-04 11:45  m  00 09 06.258585 +11 02 32.17258
 2018-Aug-04 11:46  m  00 09 06.301463 +11 02 32.75119
 2018-Aug-04 11:47  m  00 09 06.344331 +11 02 33.32976
 2018-Aug-04 11:48  m  00 09 06.387189 +11 02 33.90828
 2018-Aug-04 11:49  m  00 09 06.430039 +11 02 34.48676
 2018-Aug-04 11:50  m  00 09 06.472880 +11 02 35.06520
 2018-Aug-04 11:51  m  00 09 06.515712 +11 02 35.64358
 2018-Aug-04 11:52  m  00 09 06.558536 +11 02 36.22192
 2018-Aug-04 11:53  m  00 09 06.601350 +11 02 36.80022
 2018-Aug-04 11:54  m  00 09 06.644156 +11 02 37.37847
 2018-Aug-04 11:55  m  00 09 06.686954 +11 02 37.95667
 2018-Aug-04 11:56  m  00 09 06.729742 +11 02 38.53483
 2018-Aug-04 11:57  m  00 09 06.772523 +11 02 39.11294
 2018-Aug-04 11:58  m  00 09 06.815295 +11 02 39.69100
 2018-Aug-04 11:59  m  00 09 06.858059 +11 02 40.26902
 2018-Aug-04 12:00  m  00 09 06.900814 +11 02 40.84699
 2018-Aug-04 12:01  m  00 09 06.943562 +11 02 41.42491
 2018-Aug-04 12:02  m  00 09 06.986301 +11 02 42.00279
 2018-Aug-04 12:03  m  00 09 07.029032 +11 02 42.58062
 2018-Aug-04 12:04  m  00 09 07.071756 +11 02 43.15840
 2018-Aug-04 12:05  m  00 09 07.114471 +11 02 43.73613
 2018-Aug-04 12:06  m  00 09 07.157179 +11 02 44.31382
 2018-Aug-04 12:07  m  00 09 07.199879 +11 02 44.89146
 2018-Aug-04 12:08  m  00 09 07.242571 +11 02 45.46905
 2018-Aug-04 12:09  m  00 09 07.285256 +11 02 46.04660
 2018-Aug-04 12:10  m  00 09 07.327933 +11 02 46.62410
 2018-Aug-04 12:11  m  00 09 07.370603 +11 02 47.20155
 2018-Aug-04 12:12  m  00 09 07.413266 +11 02 47.77895
 2018-Aug-04 12:13  m  00 09 07.455921 +11 02 48.35630
 2018-Aug-04 12:14  m  00 09 07.498569 +11 02 48.93361
 2018-Aug-04 12:15  m  00 09 07.541210 +11 02 49.51086
 2018-Aug-04 12:16  m  00 09 07.583844 +11 02 50.08807
 2018-Aug-04 12:17  m  00 09 07.626471 +11 02 50.66524
 2018-Aug-04 12:18  m  00 09 07.669090 +11 02 51.24235
 2018-Aug-04 12:19  m  00 09 07.711703 +11 02 51.81941
 2018-Aug-04 12:20  m  00 09 07.754310 +11 02 52.39643
 2018-Aug-04 12:21  m  00 09 07.796909 +11 02 52.97339
 2018-Aug-04 12:22  m  00 09 07.839502 +11 02 53.55031
 2018-Aug-04 12:23  m  00 09 07.882089 +11 02 54.12718
 2018-Aug-04 12:24  m  00 09 07.924669 +11 02 54.70400
 2018-Aug-04 12:25  m  00 09 07.967242 +11 02 55.28077
 2018-Aug-04 12:26  m  00 09 08.009810 +11 02 55.85750
 2018-Aug-04 12:27  m  00 09 08.052371 +11 02 56.43417
 2018-Aug-04 12:28  m  00 09 08.094925 +11 02 57.01080
 2018-Aug-04 12:29  m  00 09 08.137474 +11 02 57.58737
 2018-Aug-04 12:30  m  00 09 08.180017 +11 02 58.16390
 2018-Aug-04 12:31  m  00 09 08.222554 +11 02 58.74037
 2018-Aug-04 12:32  m  00 09 08.265085 +11 02 59.31680
 2018-Aug-04 12:33  m  00 09 08.307610 +11 02 59.89318
 2018-Aug-04 12:34  m  00 09 08.350129 +11 03 00.46950
 2018-Aug-04 12:35  m  00 09 08.392643 +11 03 01.04578
 2018-Aug-04 12:36  m  00 09 08.435151 +11 03 01.62201
 2018-Aug-04 12:37  m  00 09 08.477654 +11 03 02.19819
 2018-Aug-04 12:38  m  00 09 08.520151 +11 03 02.77432
 2018-Aug-04 12:39  m  00 09 08.562643 +11 03 03.35040
 2018-Aug-04 12:40  m  00 09 08.605130 +11 03 03.92643
 2018-Aug-04 12:41  m  00 09 08.647611 +11 03 04.50240
 2018-Aug-04 12:42  m  00 09 08.690087 +11 03 05.07833
 2018-Aug-04 12:43  m  00 09 08.732559 +11 03 05.65421
 2018-Aug-04 12:44  m  00 09 08.775025 +11 03 06.23004
 2018-Aug-04 12:45  m  00 09 08.817487 +11 03 06.80582
 2018-Aug-04 12:46  m  00 09 08.859943 +11 03 07.38154
 2018-Aug-04 12:47  m  00 09 08.902395 +11 03 07.95722
 2018-Aug-04 12:48  m  00 09 08.944843 +11 03 08.53285
 2018-Aug-04 12:49  m  00 09 08.987285 +11 03 09.10842
 2018-Aug-04 12:50  m  00 09 09.029724 +11 03 09.68395
 2018-Aug-04 12:51  m  00 09 09.072158 +11 03 10.25942
 2018-Aug-04 12:52  m  00 09 09.114587 +11 03 10.83485
 2018-Aug-04 12:53  m  00 09 09.157012 +11 03 11.41022
 2018-Aug-04 12:54  m  00 09 09.199433 +11 03 11.98555
 2018-Aug-04 12:55  m  00 09 09.241850 +11 03 12.56082
 2018-Aug-04 12:56  m  00 09 09.284263 +11 03 13.13604
 2018-Aug-04 12:57  m  00 09 09.326672 +11 03 13.71121
 2018-Aug-04 12:58  m  00 09 09.369077 +11 03 14.28633
 2018-Aug-04 12:59  m  00 09 09.411478 +11 03 14.86139
 2018-Aug-04 13:00  m  00 09 09.453876 +11 03 15.43641
 2018-Aug-04 13:01  m  00 09 09.496270 +11 03 16.01138
 2018-Aug-04 13:02  m  00 09 09.538660 +11 03 16.58629
 2018-Aug-04 13:03  m  00 09 09.581047 +11 03 17.16116
 2018-Aug-04 13:04  m  00 09 09.623431 +11 03 17.73597
 2018-Aug-04 13:05  m  00 09 09.665811 +11 03 18.31073
 2018-Aug-04 13:06  m  00 09 09.708187 +11 03 18.88544
 2018-Aug-04 13:07  m  00 09 09.750561 +11 03 19.46010
 2018-Aug-04 13:08  m  00 09 09.792932 +11 03 20.03470
 2018-Aug-04 13:09  m  00 09 09.835299 +11 03 20.60926
 2018-Aug-04 13:10  m  00 09 09.877664 +11 03 21.18376
 2018-Aug-04 13:11  m  00 09 09.920026 +11 03 21.75822
 2018-Aug-04 13:12  m  00 09 09.962385 +11 03 22.33262
 2018-Aug-04 13:13  m  00 09 10.004741 +11 03 22.90697
 2018-Aug-04 13:14  m  00 09 10.047095 +11 03 23.48126
 2018-Aug-04 13:15  m  00 09 10.089446 +11 03 24.05551
 2018-Aug-04 13:16  m  00 09 10.131794 +11 03 24.62970
 2018-Aug-04 13:17  m  00 09 10.174141 +11 03 25.20385
 2018-Aug-04 13:18  m  00 09 10.216485 +11 03 25.77794
